[{"OBJECT_NAME":"ONEWEB-0576","OBJECT_ID":"2023-043V","EPOCH":"2026-02-22T01:52:35.665248","MEAN_MOTION":13.1659554,"ECCENTRICITY":0.0001491,"INCLINATION":87.9002,"RA_OF_ASC_NODE":251.6781,"ARG_OF_PERICENTER":87.4919,"MEAN_ANOMALY":272.6383,"EPHEMERIS_TYPE":0,"CLASSIFICATION_TYPE":"U","NORAD_CAT_ID":56065,"ELEMENT_SET_NO":999,"REV_AT_EPOCH":14381,"BSTAR":-0.00014646,"MEAN_MOTION_DOT":-4.3e-7,"MEAN_MOTION_DDOT":0},{"OBJECT_NAME":"ONEWEB-0577","OBJECT_ID":"2023-043W","EPOCH":"2026-02-22T02:01:42.756096","MEAN_MOTION":13.16595777,"ECCENTRICITY":0.0001103,"INCLINATION":87.9,"RA_OF_ASC_NODE":251.6759,"ARG_OF_PERICENTER":66.1782,"MEAN_ANOMALY":293.9464,"EPHEMERIS_TYPE":0,"CLASSIFICATION_TYPE":"U","NORAD_CAT_ID":56066,"ELEMENT_SET_NO":999,"REV_AT_EPOCH":14384,"BSTAR":0.00020173,"MEAN_MOTION_DOT":9.0e-7,"MEAN_MOTION_DDOT":0},{"OBJECT_NAME":"ONEWEB-0578","OBJECT_ID":"2023-043X","EPOCH":"2026-02-22T01:04:24.253824","MEAN_MOTION":13.2182561,"ECCENTRICITY":0.0001815,"INCLINATION":87.9171,"RA_OF_ASC_NODE":266.9387,"ARG_OF_PERICENTER":81.5896,"MEAN_ANOMALY":278.5444,"EPHEMERIS_TYPE":0,"CLASSIFICATION_TYPE":"U","NORAD_CAT_ID":56067,"ELEMENT_SET_NO":999,"REV_AT_EPOCH":14302,"BSTAR":-3.785e-5,"MEAN_MOTION_DOT":-3.0e-8,"MEAN_MOTION_DDOT":0},{"OBJECT_NAME":"ONEWEB-0579","OBJECT_ID":"2023-043Y","EPOCH":"2026-02-22T02:39:11.507040","MEAN_MOTION":13.21825305,"ECCENTRICITY":0.0001421,"INCLINATION":87.9179,"RA_OF_ASC_NODE":266.9151,"ARG_OF_PERICENTER":96.8166,"MEAN_ANOMALY":263.3129,"EPHEMERIS_TYPE":0,"CLASSIFICATION_TYPE":"U","NORAD_CAT_ID":56068,"ELEMENT_SET_NO":999,"REV_AT_EPOCH":14304,"BSTAR":9.4187e-5,"MEAN_MOTION_DOT":5.2e-7,"MEAN_MOTION_DDOT":0},{"OBJECT_NAME":"ONEWEB-0581","OBJECT_ID":"2023-043Z","EPOCH":"2026-02-22T02:10:50.729088","MEAN_MOTION":13.16597151,"ECCENTRICITY":0.0001134,"INCLINATION":87.8995,"RA_OF_ASC_NODE":251.6865,"ARG_OF_PERICENTER":73.1528,"MEAN_ANOMALY":286.9727,"EPHEMERIS_TYPE":0,"CLASSIFICATION_TYPE":"U","NORAD_CAT_ID":56069,"ELEMENT_SET_NO":999,"REV_AT_EPOCH":14381,"BSTAR":0.00034047,"MEAN_MOTION_DOT":1.43e-6,"MEAN_MOTION_DDOT":0},{"OBJECT_NAME":"ONEWEB-0609","OBJECT_ID":"2023-043AA","EPOCH":"2026-02-22T02:36:58.246272","MEAN_MOTION":13.15550315,"ECCENTRICITY":0.0001601,"INCLINATION":87.8958,"RA_OF_ASC_NODE":282.1962,"ARG_OF_PERICENTER":86.9155,"MEAN_ANOMALY":273.2159,"EPHEMERIS_TYPE":0,"CLASSIFICATION_TYPE":"U","NORAD_CAT_ID":56070,"ELEMENT_SET_NO":999,"REV_AT_EPOCH":14130,"BSTAR":-0.00020017,"MEAN_MOTION_DOT":-6.3e-7,"MEAN_MOTION_DDOT":0},{"OBJECT_NAME":"ONEWEB-0613","OBJECT_ID":"2023-043AB","EPOCH":"2026-02-22T02:30:07.630272","MEAN_MOTION":13.15550569,"ECCENTRICITY":0.0001484,"INCLINATION":87.8958,"RA_OF_ASC_NODE":282.2073,"ARG_OF_PERICENTER":95.6628,"MEAN_ANOMALY":264.4671,"EPHEMERIS_TYPE":0,"CLASSIFICATION_TYPE":"U","NORAD_CAT_ID":56071,"ELEMENT_SET_NO":999,"REV_AT_EPOCH":14130,"BSTAR":-9.8044e-5,"MEAN_MOTION_DOT":-2.4e-7,"MEAN_MOTION_DDOT":0},{"OBJECT_NAME":"ONEWEB-0630","OBJECT_ID":"2023-043AC","EPOCH":"2026-02-22T02:23:17.054016","MEAN_MOTION":13.1554707,"ECCENTRICITY":0.0001459,"INCLINATION":87.8955,"RA_OF_ASC_NODE":282.179,"ARG_OF_PERICENTER":97.6337,"MEAN_ANOMALY":262.4959,"EPHEMERIS_TYPE":0,"CLASSIFICATION_TYPE":"U","NORAD_CAT_ID":56072,"ELEMENT_SET_NO":999,"REV_AT_EPOCH":14129,"BSTAR":-5.4263e-5,"MEAN_MOTION_DOT":-8.0e-8,"MEAN_MOTION_DDOT":0},{"OBJECT_NAME":"ONEWEB-0632","OBJECT_ID":"2023-043AD","EPOCH":"2026-02-22T02:16:26.167584","MEAN_MOTION":13.15549759,"ECCENTRICITY":0.0001357,"INCLINATION":87.8959,"RA_OF_ASC_NODE":282.1973,"ARG_OF_PERICENTER":83.0535,"MEAN_ANOMALY":277.0749,"EPHEMERIS_TYPE":0,"CLASSIFICATION_TYPE":"U","NORAD_CAT_ID":56073,"ELEMENT_SET_NO":999,"REV_AT_EPOCH":14129,"BSTAR":0.00032833,"MEAN_MOTION_DOT":1.36e-6,"MEAN_MOTION_DDOT":0},{"OBJECT_NAME":"ONEWEB-0633","OBJECT_ID":"2023-043AE","EPOCH":"2026-02-22T02:07:18.675840","MEAN_MOTION":13.1555077,"ECCENTRICITY":0.0001627,"INCLINATION":87.8966,"RA_OF_ASC_NODE":282.1645,"ARG_OF_PERICENTER":100.8132,"MEAN_ANOMALY":259.3181,"EPHEMERIS_TYPE":0,"CLASSIFICATION_TYPE":"U","NORAD_CAT_ID":56074,"ELEMENT_SET_NO":999,"REV_AT_EPOCH":14127,"BSTAR":0.00053854,"MEAN_MOTION_DOT":2.16e-6,"MEAN_MOTION_DDOT":0},{"OBJECT_NAME":"ONEWEB-0634","OBJECT_ID":"2023-043AF","EPOCH":"2026-02-22T01:46:46.389792","MEAN_MOTION":13.15550073,"ECCENTRICITY":0.0001861,"INCLINATION":87.8959,"RA_OF_ASC_NODE":282.2172,"ARG_OF_PERICENTER":86.5353,"MEAN_ANOMALY":273.599,"EPHEMERIS_TYPE":0,"CLASSIFICATION_TYPE":"U","NORAD_CAT_ID":56075,"ELEMENT_SET_NO":999,"REV_AT_EPOCH":14126,"BSTAR":0.00033201,"MEAN_MOTION_DOT":1.38e-6,"MEAN_MOTION_DDOT":0},{"OBJECT_NAME":"ONEWEB-0635","OBJECT_ID":"2023-043AG","EPOCH":"2026-02-22T01:39:55.331424","MEAN_MOTION":13.15549538,"ECCENTRICITY":0.0001304,"INCLINATION":87.8964,"RA_OF_ASC_NODE":282.1709,"ARG_OF_PERICENTER":79.2795,"MEAN_ANOMALY":280.8482,"EPHEMERIS_TYPE":0,"CLASSIFICATION_TYPE":"U","NORAD_CAT_ID":56076,"ELEMENT_SET_NO":999,"REV_AT_EPOCH":14129,"BSTAR":0.00019582,"MEAN_MOTION_DOT":8.7e-7,"MEAN_MOTION_DDOT":0},{"OBJECT_NAME":"ONEWEB-0636","OBJECT_ID":"2023-043AH","EPOCH":"2026-02-22T01:28:30.988128","MEAN_MOTION":13.15549472,"ECCENTRICITY":0.0001376,"INCLINATION":87.8954,"RA_OF_ASC_NODE":282.1879,"ARG_OF_PERICENTER":78.4513,"MEAN_ANOMALY":281.6772,"EPHEMERIS_TYPE":0,"CLASSIFICATION_TYPE":"U","NORAD_CAT_ID":56077,"ELEMENT_SET_NO":999,"REV_AT_EPOCH":14127,"BSTAR":-8.9851e-5,"MEAN_MOTION_DOT":-2.1e-7,"MEAN_MOTION_DDOT":0},{"OBJECT_NAME":"ONEWEB-0637","OBJECT_ID":"2023-043AJ","EPOCH":"2026-02-22T01:19:24.547008","MEAN_MOTION":13.1555054,"ECCENTRICITY":0.0001632,"INCLINATION":87.8956,"RA_OF_ASC_NODE":282.207,"ARG_OF_PERICENTER":74.2145,"MEAN_ANOMALY":285.9165,"EPHEMERIS_TYPE":0,"CLASSIFICATION_TYPE":"U","NORAD_CAT_ID":56078,"ELEMENT_SET_NO":999,"REV_AT_EPOCH":14129,"BSTAR":-0.00018682,"MEAN_MOTION_DOT":-5.8e-7,"MEAN_MOTION_DDOT":0},{"OBJECT_NAME":"ONEWEB-0647","OBJECT_ID":"2023-043AK","EPOCH":"2026-02-22T01:12:32.774112","MEAN_MOTION":13.15550074,"ECCENTRICITY":0.0001355,"INCLINATION":87.895,"RA_OF_ASC_NODE":282.2209,"ARG_OF_PERICENTER":84.5098,"MEAN_ANOMALY":275.6187,"EPHEMERIS_TYPE":0,"CLASSIFICATION_TYPE":"U","NORAD_CAT_ID":56079,"ELEMENT_SET_NO":999,"REV_AT_EPOCH":14128,"BSTAR":-0.00044721,"MEAN_MOTION_DOT":-1.56e-6,"MEAN_MOTION_DDOT":0},{"OBJECT_NAME":"ONEWEB-0651","OBJECT_ID":"2023-043AL","EPOCH":"2026-02-22T01:05:41.968032","MEAN_MOTION":13.15550165,"ECCENTRICITY":0.0001437,"INCLINATION":87.8952,"RA_OF_ASC_NODE":282.2165,"ARG_OF_PERICENTER":73.3329,"MEAN_ANOMALY":286.7959,"EPHEMERIS_TYPE":0,"CLASSIFICATION_TYPE":"U","NORAD_CAT_ID":56080,"ELEMENT_SET_NO":999,"REV_AT_EPOCH":14248,"BSTAR":-0.00059927,"MEAN_MOTION_DOT":-2.13e-6,"MEAN_MOTION_DDOT":0},{"OBJECT_NAME":"ONEWEB-0718","OBJECT_ID":"2023-043AM","EPOCH":"2026-02-22T00:58:51.644064","MEAN_MOTION":13.15547304,"ECCENTRICITY":0.0002052,"INCLINATION":87.8961,"RA_OF_ASC_NODE":282.1976,"ARG_OF_PERICENTER":87.2199,"MEAN_ANOMALY":272.9166,"EPHEMERIS_TYPE":0,"CLASSIFICATION_TYPE":"U","NORAD_CAT_ID":56081,"ELEMENT_SET_NO":999,"REV_AT_EPOCH":14129,"BSTAR":-0.00026343,"MEAN_MOTION_DOT":-8.6e-7,"MEAN_MOTION_DDOT":0},{"OBJECT_NAME":"ONEWEB-0561","OBJECT_ID":"2023-068A","EPOCH":"2026-02-22T02:57:25.264512","MEAN_MOTION":13.20772149,"ECCENTRICITY":0.0001172,"INCLINATION":87.9183,"RA_OF_ASC_NODE":297.4161,"ARG_OF_PERICENTER":72.4062,"MEAN_ANOMALY":287.7199,"EPHEMERIS_TYPE":0,"CLASSIFICATION_TYPE":"U","NORAD_CAT_ID":56710,"ELEMENT_SET_NO":999,"REV_AT_EPOCH":13431,"BSTAR":-0.00021427,"MEAN_MOTION_DOT":-7.4e-7,"MEAN_MOTION_DDOT":0},{"OBJECT_NAME":"ONEWEB-0668","OBJECT_ID":"2023-068B","EPOCH":"2026-02-22T01:34:21.763488","MEAN_MOTION":13.1659508,"ECCENTRICITY":0.0002056,"INCLINATION":87.901,"RA_OF_ASC_NODE":251.6718,"ARG_OF_PERICENTER":82.6049,"MEAN_ANOMALY":277.5316,"EPHEMERIS_TYPE":0,"CLASSIFICATION_TYPE":"U","NORAD_CAT_ID":56711,"ELEMENT_SET_NO":999,"REV_AT_EPOCH":13663,"BSTAR":6.0715e-5,"MEAN_MOTION_DOT":3.6e-7,"MEAN_MOTION_DDOT":0},{"OBJECT_NAME":"ONEWEB-0676","OBJECT_ID":"2023-068C","EPOCH":"2026-02-22T01:45:45.846720","MEAN_MOTION":13.16593206,"ECCENTRICITY":0.0001319,"INCLINATION":87.8996,"RA_OF_ASC_NODE":251.6843,"ARG_OF_PERICENTER":84.2449,"MEAN_ANOMALY":275.8832,"EPHEMERIS_TYPE":0,"CLASSIFICATION_TYPE":"U","NORAD_CAT_ID":56712,"ELEMENT_SET_NO":999,"REV_AT_EPOCH":13655,"BSTAR":0.00018021,"MEAN_MOTION_DOT":8.2e-7,"MEAN_MOTION_DDOT":0},{"OBJECT_NAME":"ONEWEB-0677","OBJECT_ID":"2023-068D","EPOCH":"2026-02-22T02:41:30.651648","MEAN_MOTION":13.20771732,"ECCENTRICITY":0.0001653,"INCLINATION":87.9197,"RA_OF_ASC_NODE":297.4088,"ARG_OF_PERICENTER":76.9884,"MEAN_ANOMALY":283.1433,"EPHEMERIS_TYPE":0,"CLASSIFICATION_TYPE":"U","NORAD_CAT_ID":56713,"ELEMENT_SET_NO":999,"REV_AT_EPOCH":13461,"BSTAR":-1.1798e-6,"MEAN_MOTION_DOT":1.2e-7,"MEAN_MOTION_DDOT":0},{"OBJECT_NAME":"ONEWEB-0678","OBJECT_ID":"2023-068E","EPOCH":"2026-02-22T02:02:44.697120","MEAN_MOTION":13.15549455,"ECCENTRICITY":0.0001323,"INCLINATION":87.8965,"RA_OF_ASC_NODE":282.1696,"ARG_OF_PERICENTER":95.2483,"MEAN_ANOMALY":264.8799,"EPHEMERIS_TYPE":0,"CLASSIFICATION_TYPE":"U","NORAD_CAT_ID":56714,"ELEMENT_SET_NO":999,"REV_AT_EPOCH":13415,"BSTAR":0.00036955,"MEAN_MOTION_DOT":1.52e-6,"MEAN_MOTION_DDOT":0},{"OBJECT_NAME":"ONEWEB-0679","OBJECT_ID":"2023-068F","EPOCH":"2026-02-22T00:46:28.922880","MEAN_MOTION":13.16596186,"ECCENTRICITY":0.000177,"INCLINATION":87.9005,"RA_OF_ASC_NODE":251.6769,"ARG_OF_PERICENTER":72.242,"MEAN_ANOMALY":287.8904,"EPHEMERIS_TYPE":0,"CLASSIFICATION_TYPE":"U","NORAD_CAT_ID":56715,"ELEMENT_SET_NO":999,"REV_AT_EPOCH":13657,"BSTAR":-1.1974e-5,"MEAN_MOTION_DOT":8.0e-8,"MEAN_MOTION_DDOT":0},{"OBJECT_NAME":"ONEWEB-0680","OBJECT_ID":"2023-068G","EPOCH":"2026-02-22T02:43:55.138368","MEAN_MOTION":13.21823034,"ECCENTRICITY":0.0002035,"INCLINATION":87.9181,"RA_OF_ASC_NODE":266.9148,"ARG_OF_PERICENTER":76.1468,"MEAN_ANOMALY":283.9892,"EPHEMERIS_TYPE":0,"CLASSIFICATION_TYPE":"U","NORAD_CAT_ID":56716,"ELEMENT_SET_NO":999,"REV_AT_EPOCH":13589,"BSTAR":-0.00040826,"MEAN_MOTION_DOT":-1.56e-6,"MEAN_MOTION_DDOT":0}]
